{
    "links": {
        "self": "http://www.neowsapp.com/rest/v1/neo/3699895?api_key=iIulBulltgU6a56xZRHN4H3l9WmuAYTsLGpBGhQ2"
    },
    "id": "3699895",
    "neo_reference_id": "3699895",
    "name": "(2014 WC366)",
    "designation": "2014 WC366",
    "nasa_jpl_url": "http://ssd.jpl.nasa.gov/sbdb.cgi?sstr=3699895",
    "absolute_magnitude_h": 25.5,
    "estimated_diameter": {
        "kilometers": {
            "estimated_diameter_min": 0.0211132445,
            "estimated_diameter_max": 0.0472106499
        },
        "meters": {
            "estimated_diameter_min": 21.113244479,
            "estimated_diameter_max": 47.2106498806
        },
        "miles": {
            "estimated_diameter_min": 0.0131191578,
            "estimated_diameter_max": 0.0293353287
        },
        "feet": {
            "estimated_diameter_min": 69.2691770164,
            "estimated_diameter_max": 154.8905885541
        }
    },
    "is_potentially_hazardous_asteroid": false,
    "close_approach_data": [
        {
            "close_approach_date": "2014-12-09",
            "close_approach_date_full": "2014-Dec-09 10:50",
            "epoch_date_close_approach": 1418122200000,
            "relative_velocity": {
                "kilometers_per_second": "14.0988515822",
                "kilometers_per_hour": "50755.8656957994",
                "miles_per_hour": "31537.7211041482"
            },
            "miss_distance": {
                "astronomical": "0.008847119",
                "lunar": "3.441529291",
                "kilometers": "1323510.15803653",
                "miles": "822391.077422914"
            },
            "orbiting_body": "Moon"
        },
        {
            "close_approach_date": "2014-12-09",
            "close_approach_date_full": "2014-Dec-09 14:46",
            "epoch_date_close_approach": 1418136360000,
            "relative_velocity": {
                "kilometers_per_second": "14.7435288015",
                "kilometers_per_hour": "53076.7036853831",
                "miles_per_hour": "32979.7995760648"
            },
            "miss_distance": {
                "astronomical": "0.0108232702",
                "lunar": "4.2102521078",
                "kilometers": "1619138.168354474",
                "miles": "1006085.8049967812"
            },
            "orbiting_body": "Earth"
        },
        {
            "close_approach_date": "2086-11-18",
            "close_approach_date_full": "2086-Nov-18 13:22",
            "epoch_date_close_approach": 3688464120000,
            "relative_velocity": {
                "kilometers_per_second": "25.6972809486",
                "kilometers_per_hour": "92510.2114149985",
                "miles_per_hour": "57482.2477539473"
            },
            "miss_distance": {
                "astronomical": "0.3777677869",
                "lunar": "146.9516691041",
                "kilometers": "56513256.274853903",
                "miles": "35115709.1121257414"
            },
            "orbiting_body": "Earth"
        }
    ],
    "orbital_data": {
        "orbit_id": "5",
        "orbit_determination_date": "2019-07-18 07:27:15",
        "first_observation_date": "2014-11-27",
        "last_observation_date": "2014-12-01",
        "data_arc_in_days": 4,
        "observations_used": 21,
        "orbit_uncertainty": "8",
        "minimum_orbit_intersection": ".00538141",
        "jupiter_tisserand_invariant": "3.797",
        "epoch_osculation": "2456992.5",
        "eccentricity": ".5747859811745659",
        "semi_major_axis": "1.839579975113174",
        "inclination": "5.821567964067744",
        "ascending_node_longitude": "255.0494850979818",
        "orbital_period": "911.3316156318439",
        "perihelion_distance": ".7822151941686648",
        "perihelion_argument": "247.3122132907263",
        "aphelion_distance": "2.896944756057684",
        "perihelion_time": "2457043.726478031497",
        "mean_anomaly": "339.7641914589422",
        "mean_motion": ".395026348065852",
        "equinox": "J2000",
        "orbit_class": {
            "orbit_class_type": "APO",
            "orbit_class_description": "Near-Earth asteroid orbits which cross the Earth’s orbit similar to that of 1862 Apollo",
            "orbit_class_range": "a (semi-major axis) > 1.0 AU; q (perihelion) < 1.017 AU"
        }
    },
    "is_sentry_object": false
}